DMSP 5D-3 F17 (USA 191) 
1 29522U 06050A   26178.49354128  .00000056  00000+0  51251-4 0  9999
2 29522  98.7378 184.8527 0010750  32.4320 327.7513 14.14994219 13888
BADR-4                  
1 29526U 06051A   26178.52794884  .00000165  00000+0  00000+0 0  9997
2 29526   2.0309  81.0184 0005377  13.0722  46.0691  1.00268767 51378
NAVSTAR 59 (USA 192)    
1 29601U 06052A   26177.89165156  .00000083  00000+0  00000+0 0  9994
2 29601  54.9336 213.6215 0084877  90.7582 270.2951  2.00558656143602
WILDBLUE-1              
1 29643U 06054A   26178.49907272 -.00000040  00000+0  00000+0 0  9996
2 29643   2.8292  80.3614 0001756   7.0279 256.6733  1.00271213 53899
LAPAN-TUBSAT            
1 29709U 07001A   26178.48970596  .00000967  00000+0  11722-3 0  9994
2 29709  98.1342 177.9457 0012806 146.4846 213.7181 14.85961082 52684
THEMIS A                
1 30580U 07004A   26176.43528125 -.00000462  00000+0  39609-1 0  9999
2 30580   8.4786 109.0264 8364932 200.7985  72.7085  0.87843945 41359
SKYNET 5A               
1 30794U 07007B   26178.11226403 -.00000265  00000+0  00000+0 0  9992
2 30794   5.3249  73.6223 0003705  27.5478 309.6925  1.00271314 70795
THEMIS D                
1 30797U 07004D   26168.14778321 -.00000390  00000+0  00000+0 0  9994
2 30797   7.6675  80.4898 8331977 230.8824 268.0937  0.87589082 41075
THEMIS E                
1 30798U 07004E   26169.54314664 -.00000327  00000+0  00000+0 0  9996
2 30798   6.3692  98.0709 8440071 215.6799 161.0349  0.88041867 65930
ANIK F3                 
1 31102U 07009A   26178.46959185  .00000010  00000+0  00000+0 0  9993
2 31102   1.2237  83.7436 0002928   7.3715 234.8171  1.00270591 46662
HAIYANG-1B              
1 31113U 07010A   26178.49299032  .00000091  00000+0  50281-4 0  9998
2 31113  98.3499 159.9387 0013706 165.5533 194.6045 14.31029347  2117
SAUDISAT 3              
1 31118U 07012B   26178.39100228  .00000248  00000+0  48287-4 0  9999
2 31118  98.1459 128.7984 0014312 189.8320 170.2609 14.71431078 29241
SAUDICOMSAT 7           
1 31119U 07012C   26178.41829035  .00000509  00000+0  10009-3 0  9997
2 31119  98.3783 152.7595 0056026 163.1164 197.1920 14.66119439 23930
SAUDICOMSAT 6           
1 31121U 07012E   26178.42066819  .00000509  00000+0  10706-3 0  9998
2 31121  98.4102 146.1277 0070524 295.4712  63.9204 14.62569264 21686
SAUDICOMSAT 5           
1 31124U 07012H   26178.44559115  .00000726  00000+0  13317-3 0  9991
2 31124  98.3494 153.5322 0048741  93.2655 267.4127 14.68169577 25106
SAUDICOMSAT 3           
1 31125U 07012J   26178.45636493  .00000889  00000+0  15296-3 0  9996
2 31125  98.3147 154.0907 0039617  21.5020 338.7838 14.70722713 26336
SAUDICOMSAT 4           
1 31127U 07012L   26178.47136630  .00000397  00000+0  82795-4 0  9991
2 31127  98.3988 151.2519 0062398 225.4683 134.1413 14.64521008 22791
ASTRA 1L                
1 31306U 07016A   26178.30236943 -.00000174  00000+0  00000+0 0  9992
2 31306   1.3475  81.5136 0005709  18.8605 259.3870  1.00270436 45082
GALAXY 17 (G-17)        
1 31307U 07016B   26178.50427274 -.00000197  00000+0  00000+0 0  9999
2 31307   2.9975  79.7782 0004601  20.3957 271.9658  1.00271110 69900
YAOGAN-2                
1 31490U 07019A   26178.48138365  .00000816  00000+0  10805-3 0  9997
2 31490  98.2637  39.4184 0019357 238.9479 120.9833 14.82692761 29148
GLOBALSTAR M069         
1 31573U 07020C   26178.50296623 -.00000052  00000+0  37660-3 0  9997
2 31573  52.0005 222.9291 0002100 170.7651 330.1583 12.23471613880065
GLOBALSTAR M072         
1 31574U 07020D   26178.47784794 -.00000084  00000+0 -12276-5 0  9999
2 31574  51.9937  72.8490 0001524 357.6329 173.4660 11.91658438876209
COSMO-SKYMED 1          
1 31598U 07023A   26178.49460331  .00002878  00000+0  25435-3 0  9998
2 31598  97.8859  10.4374 0001767  88.2666 271.8758 14.97154881 31336
TERRASAR-X              
1 31698U 07026A   26177.61088571  .00000881  00000+0  45155-4 0  9991
2 31698  97.4450 185.1818 0001614  89.1456 270.9963 15.19154138 54659
COSMOS 2428             
1 31792U 07029A   26178.47990093 -.00000003  00000+0  23959-4 0  9990
2 31792  70.9373 332.8657 0007126 115.2842 244.9018 14.12927896979604
SAR-LUPE 2              
1 31797U 07030A   26178.54115251  .00039656  00000+0  66676-3 0  9997
2 31797  98.1055 284.2680 0002578 180.1641 179.9609 15.51652251 58546
WORLDVIEW-1 (WV-1)      
1 32060U 07041A   26178.53272718  .00006134  00000+0  25332-3 0  9993
2 32060  97.3884 298.1283 0001273 339.9864  20.1323 15.24376583 44452
INTELSAT 11 (IS-11)     
1 32253U 07044B   26178.39454566  .00000043  00000+0  00000+0 0  9991
2 32253   3.5915  78.5532 0003104  84.4812 335.4397  0.99047724 68555
WGS F1 (USA 195)        
1 32258U 07046A   26178.51267947 -.00000256  00000+0  00000+0 0  9994
2 32258   0.0262  75.8836 0000598 319.5087  22.2953  1.00268795 52439
NAVSTAR 60 (USA 196)    
1 32260U 07047A   26178.19682156 -.00000070  00000+0  00000+0 0  9999
2 32260  54.1023  79.6530 0167144  87.5980 274.3314  2.00554886137014
GLOBALSTAR M066         
1 32265U 07048C   26178.33668060 -.00000103  00000+0 -75425-4 0  9995
2 32265  51.9601  28.7764 0005633  65.6063 105.5691 12.30387084861478
